NORAD_CAT_ID,OBJECT_NAME,OBJECT_TYPE,EPOCH,MEAN_MOTION,ECCENTRICITY,INCLINATION,RA_OF_ASC_NODE,ARG_OF_PERICENTER,MEAN_ANOMALY,BSTAR,MEAN_MOTION_DOT,MEAN_MOTION_DDOT,TLE_LINE0,TLE_LINE1,TLE_LINE2,SEMIMAJOR_AXIS,PERIOD,APOGEE,PERIGEE,DECAYED
53023.0,STARLINK-4284,PAYLOAD,2022-08-05 14:00:01,15.73205101,0.0002444,53.2181,235.8653,17.2157,206.8781,0.00030339,0.00042185,0.0,0 STARLINK-4284,1 53023U 22076AP  22217.58335648  .00042185  00000-0  30339-3 0  9997,2 53023  53.2181 235.8653 0002444  17.2157 206.8781 15.73205101  1305,6727.880999999999,91.533,351.39,348.101,0.0
53023.0,STARLINK-4284,PAYLOAD,2022-08-05 22:00:00,15.73228609,0.0002283,53.2185,234.2138,21.7629,291.2202,-8.7928e-06,-1.857e-05,0.0,0 STARLINK-4284,1 53023U 22076AP  22217.91667824 -.00001857  00000-0 -87928-5 0  9999,2 53023  53.2185 234.2138 0002283  21.7629 291.2202 15.73228609  5123,6727.814,91.532,351.215,348.14300000000014,0.0
53023.0,STARLINK-4284,PAYLOAD,2022-08-06 05:49:23,15.73247805,0.0002501,53.2185,232.602,19.3594,340.7521,0.00021564,0.00029814,0.0,0 STARLINK-4284,1 53023U 22076AP  22218.24262805  .00029814  00000-0  21564-3 0  9999,2 53023  53.2185 232.6020 0002501  19.3594 340.7521 15.73247805  5170,6727.759,91.53,351.306,347.941,0.0
53023.0,STARLINK-4284,PAYLOAD,2022-08-06 14:00:01,15.73203116,0.0002593999999999,53.2183,230.9169,22.2576,108.6265,-0.00035809,-0.00050592,0.0,0 STARLINK-4284,1 53023U 22076AP  22218.58334491 -.00050592  00000-0 -35809-3 0  9993,2 53023  53.2183 230.9169 0002594  22.2576 108.6265 15.73203116  1302,6727.886,91.533,351.497,348.006,0.0
53023.0,STARLINK-4284,PAYLOAD,2022-08-06 22:00:00,15.73146698,0.0002308,53.2182,229.2657,23.6849,196.1171,0.00054438,0.00076306,0.0,0 STARLINK-4284,1 53023U 22076AP  22218.91667824  .00076306  00000-0  54438-3 0  9997,2 53023  53.2182 229.2657 0002308  23.6849 196.1171 15.73146698  1304,6728.047,91.536,351.465,348.3590000000001,0.0
53023.0,STARLINK-4284,PAYLOAD,2022-08-07 04:41:36,15.73194171,0.0002523,53.2184,227.8869,23.8655,336.2481,0.00012633,0.00017142,0.0,0 STARLINK-4284,1 53023U 22076AP  22219.19555615  .00017142  00000-0  12633-3 0  9996,2 53023  53.2184 227.8869 0002523  23.8655 336.2481 15.73194171  5327,6727.9119999999975,91.534,351.474,348.079,0.0
53023.0,STARLINK-4284,PAYLOAD,2022-08-07 14:00:01,15.73246358,0.0002538,53.2179,225.969,19.9671,17.6532,-0.00053918,-0.00075777,0.0,0 STARLINK-4284,1 53023U 22076AP  22219.58334491 -.00075777  00000-0 -53918-3 0  9997,2 53023  53.2179 225.9690 0002538  19.9671  17.6532 15.73246358  1308,6727.763000000001,91.53,351.336,347.921,0.0
53023.0,STARLINK-4284,PAYLOAD,2022-08-07 22:00:00,15.73161448,0.0002245,53.2181,224.3176,20.9585,105.6348,0.00057442,0.00080644,0.0,0 STARLINK-4284,1 53023U 22076AP  22219.91667824  .00080644  00000-0  57442-3 0  9996,2 53023  53.2181 224.3176 0002245  20.9585 105.6348 15.73161448  1303,6728.005,91.535,351.381,348.36,0.0
53023.0,STARLINK-4284,PAYLOAD,2022-08-08 06:00:00,15.73233504,0.0002468,53.2182,222.6699,21.2899,194.2401,0.00020585,0.0002841,0.0,0 STARLINK-4284,1 53023U 22076AP  22220.25001157  .00028410  00000-0  20585-3 0  9997,2 53023  53.2182 222.6699 0002468  21.2899 194.2401 15.73233504  5495,6727.8,91.531,351.325,348.004,0.0
53023.0,STARLINK-4284,PAYLOAD,2022-08-08 14:00:01,15.73313976,0.000248,53.2178,221.0203,18.6084,285.9719,-0.00061075,-0.00085898,0.0,0 STARLINK-4284,1 53023U 22076AP  22220.58335648 -.00085898  00000-0 -61075-3 0  9992,2 53023  53.2178 221.0203 0002480  18.6084 285.9719 15.73313976  1302,6727.57,91.527,351.10400000000016,347.767,0.0
53023.0,STARLINK-4284,PAYLOAD,2022-08-08 17:17:05,15.73281002,0.0002313,53.2181,220.3409,24.3428,335.7701,0.00036601,0.00051243,0.0,0 STARLINK-4284,1 53023U 22076AP  22220.72020342  .00051243  00000-0  36601-3 0  9992,2 53023  53.2181 220.3409 0002313  24.3428 335.7701 15.73281002  5568,6727.6640000000025,91.528,351.085,347.973,0.0
53023.0,STARLINK-4284,PAYLOAD,2022-08-08 22:00:00,15.73241285,0.0002284,53.2178,219.3691,23.7566,9.7994,-0.0001149999999999,-0.0001675999999999,0.0,0 STARLINK-4284,1 53023U 22076AP  22220.91667824 -.00016760  00000-0 -11500-3 0  9993,2 53023  53.2178 219.3691 0002284  23.7566   9.7994 15.73241285  1307,6727.776999999999,91.531,351.17900000000014,348.106,0.0
53023.0,STARLINK-4284,PAYLOAD,2022-08-09 06:00:00,15.73218277,0.0002512,53.2175,217.7216,24.99,97.5229,-0.00069842,-0.00097605,0.0,0 STARLINK-4284,1 53023U 22076AP  22221.25001157 -.00097605  00000-0 -69842-3 0  9991,2 53023  53.2175 217.7216 0002512  24.9900  97.5229 15.73218277  5640,6727.843000000003,91.532,351.398,348.01800000000014,0.0
53023.0,STARLINK-4284,PAYLOAD,2022-08-09 14:00:01,15.73175941,0.0002435,53.2173,216.0721,21.0268,190.3775,-0.00059105,-0.0008269,0.0,0 STARLINK-4284,1 53023U 22076AP  22221.58334491 -.00082690  00000-0 -59105-3 0  9996,2 53023  53.2173 216.0721 0002435  21.0268 190.3775 15.73175941  1307,6727.964,91.535,351.467,348.191,0.0
53023.0,STARLINK-4284,PAYLOAD,2022-08-09 22:00:00,15.73086886,0.0002228,53.2177,214.4209,21.7905,278.4785,0.0006449,0.00090431,0.0,0 STARLINK-4284,1 53023U 22076AP  22221.91667824  .00090431  00000-0  64490-3 0  9995,2 53023  53.2177 214.4209 0002228  21.7905 278.4785 15.73086886  5750,6728.218000000003,91.54,351.582,348.584,0.0
53023.0,STARLINK-4284,PAYLOAD,2022-08-10 14:00:01,15.73193194,0.0002466,53.2176,211.1238,20.6221,97.3608,6.4762e-05,8.475e-05,0.0,0 STARLINK-4284,1 53023U 22076AP  22222.58334491  .00008475  00000-0  64762-4 0  9990,2 53023  53.2176 211.1238 0002466  20.6221  97.3608 15.73193194  1308,6727.915,91.534,351.439,348.12,0.0
53023.0,STARLINK-4284,PAYLOAD,2022-08-10 17:07:18,15.731930599999998,0.0002331999999999,53.2179,210.4796,21.5895,113.4743,0.00028072,0.0003895,0.0,0 STARLINK-4284,1 53023U 22076AP  22222.71341435  .00038950  00000-0  28072-3 0  9995,2 53023  53.2179 210.4796 0002332  21.5895 113.4743 15.73193060  5879,6727.915,91.534,351.349,348.211,0.0
53023.0,STARLINK-4284,PAYLOAD,2022-08-10 22:00:00,15.73205472,0.0002210999999999,53.2174,209.468,24.8086,182.1113,0.00047741,0.00066936,0.0,0 STARLINK-4284,1 53023U 22076AP  22222.91667824  .00066936  00000-0  47741-3 0  9999,2 53023  53.2174 209.4680 0002211  24.8086 182.1113 15.73205472  1307,6727.88,91.533,351.232,348.25699999999995,0.0
53023.0,STARLINK-4284,PAYLOAD,2022-08-11 06:00:02,15.73217922,0.0002419,53.2175,207.8255,20.4417,275.4947,-0.00029179,-0.00041409,0.0,0 STARLINK-4284,1 53023U 22076AP  22223.25002315 -.00041409  00000-0 -29179-3 0  9990,2 53023  53.2175 207.8255 0002419  20.4417 275.4947 15.73217922  5968,6727.844,91.532,351.337,348.082,0.0
53023.0,STARLINK-4284,PAYLOAD,2022-08-11 14:00:01,15.73223921,0.0002373,53.2175,206.1755,18.5181,6.2855,5.4365e-05,7.023e-05,0.0,0 STARLINK-4284,1 53023U 22076AP  22223.58334491  .00007023  00000-0  54365-4 0  9997,2 53023  53.2175 206.1755 0002373  18.5181   6.2855 15.73223921  1308,6727.8269999999975,91.532,351.288,348.095,0.0
53023.0,STARLINK-4284,PAYLOAD,2022-08-11 22:00:00,15.73230151,0.0002238,53.218,204.5245,24.8432,88.9127,-0.00019789,-0.0002833999999999,0.0,0 STARLINK-4284,1 53023U 22076AP  22223.91667824 -.00028340  00000-0 -19789-3 0  9990,2 53023  53.2180 204.5245 0002238  24.8432  88.9127 15.73230151  6069,6727.809,91.531,351.18,348.1690000000001,0.0
53023.0,STARLINK-4284,PAYLOAD,2022-08-12 14:00:01,15.7319905,0.0002393,53.2181,201.2268,22.7456,268.903,0.00011775,0.00015936,0.0,0 STARLINK-4284,1 53023U 22076AP  22224.58334491  .00015936  00000-0  11775-3 0  9997,2 53023  53.2181 201.2268 0002393  22.7456 268.9030 15.73199050  1301,6727.898,91.533,351.37300000000016,348.153,0.0
53023.0,STARLINK-4284,PAYLOAD,2022-08-12 20:00:01,15.73209182,0.0002266,53.2182,199.9886,26.6367,241.7672,-6.1579e-05,-9.259e-05,0.0,0 STARLINK-4284,1 53023U 22076AP  22224.83335648 -.00009259  00000-0 -61579-4 0  9991,2 53023  53.2182 199.9886 0002266  26.6367 241.7672 15.73209182  6218,6727.869000000002,91.533,351.259,348.209,0.0
53023.0,STARLINK-4284,PAYLOAD,2022-08-12 22:00:01,15.73218069,0.0002284,53.2184,199.5763,28.9267,351.7078,-0.00019769,-0.00028298,0.0,0 STARLINK-4284,1 53023U 22076AP  22224.91668981 -.00028298  00000-0 -19769-3 0  9996,2 53023  53.2184 199.5763 0002284  28.9267 351.7078 15.73218069  1305,6727.844,91.532,351.245,348.172,0.0
53023.0,STARLINK-4284,PAYLOAD,2022-08-13 14:00:01,15.73165744,0.0002374,53.2179,196.2788,25.0869,173.3094,-9.5914e-05,-0.00014042,0.0,0 STARLINK-4284,1 53023U 22076AP  22225.58334491 -.00014042  00000-0 -95914-4 0  9995,2 53023  53.2179 196.2788 0002374  25.0869 173.3094 15.73165744  1303,6727.993,91.535,351.455,348.261,0.0
53023.0,STARLINK-4284,PAYLOAD,2022-08-13 22:00:00,15.73164878,0.0002211999999999,53.2179,194.6284,28.7305,258.5438,0.00045165,0.00063152,0.0,0 STARLINK-4284,1 53023U 22076AP  22225.91667824  .00063152  00000-0  45165-3 0  9997,2 53023  53.2179 194.6284 0002212  28.7305 258.5438 15.73164878  1307,6727.995,91.535,351.349,348.372,0.0
53023.0,STARLINK-4284,PAYLOAD,2022-08-14 06:00:02,15.73197284,0.0002478,53.2176,192.9751,27.3817,348.8751,0.00026532,0.00036777,0.0,0 STARLINK-4284,1 53023U 22076AP  22226.25002315  .00036777  00000-0  26532-3 0  9993,2 53023  53.2176 192.9751 0002478  27.3817 348.8751 15.73197284  6438,6727.903,91.533,351.435,348.101,0.0
53023.0,STARLINK-4284,PAYLOAD,2022-08-14 14:00:01,15.732862,0.0002316,53.2169,191.3305,25.3,79.8425,-0.000452,-0.0006382,0.0,0 STARLINK-4284,1 53023U 22076AP  22226.58334491 -.00063820  00000-0 -45200-3 0  9996,2 53023  53.2169 191.3305 0002316  25.3000  79.8425 15.73286200  6482,6727.649,91.528,351.0730000000001,347.956,0.0
53023.0,STARLINK-4284,PAYLOAD,2022-08-14 22:00:00,15.73235587,0.0002068,53.217,189.6803,25.5772,168.5603,1.1391e-05,9.8e-06,0.0,0 STARLINK-4284,1 53023U 22076AP  22226.91667824  .00000980  00000-0  11391-4 0  9993,2 53023  53.2170 189.6803 0002068  25.5772 168.5603 15.73235587  1301,6727.794,91.531,351.05,348.267,0.0
